LON,LAT,NUMBER,STREET,POSTCODE,HASH
-116.3647244,43.6623327,6324,N STAFFORD PL ,83713,deb440224d509a97
-116.3642031,43.6626954,2425,E CHINDEN BLVD ,83713,78122c3f482bf5d0
-116.3641911,43.6495791,4945,N ICE SPRINGS WAY,83713,caaaa36bd1ffead0
-116.3641137,43.6617213,6257,N HEATHROW CT ,83713,77238cb37ca6f179
-116.3640954,43.653687,5395,N CASTLE CREEK PL,83713,278a60854eb46871
-116.3631699,43.6507992,5087,N CAMAS CREEK AVE,83713,5d8e50eabf317344
-116.3630417,43.6608747,6169,N QUEENSBURY PL ,83713,a7af3a2ce080e8d8
-116.3628147,43.6521159,14470,W KETTLE CREEK DR,83713,f8082323191aa4f7
-116.3625527,43.6541429,14452,W SEDONA DR ,83713,47ed53e0f8b7daa8
-116.3619762,43.6584789,14408,W KENSINGTON CT ,83713,d02600af3745a4c0
-116.3609728,43.6577063,14335,W BARCLAY ST ,83713,962a52ebb5d9ae65
-116.3609545,43.6587901,5924,N ROSEPOINT PL ,83713,dceb14ee4d77a232
-116.3604156,43.6544488,14284,W TALON CREEK DR,83713,24311dfe88e9048d
-116.3601599,43.6587144,5933,N ROTHMANS AVE ,83713,55500936ab3eec62
-116.3600462,43.6624651,14244,W PAVILION ST ,83713,9536b1145e741175
-116.3599344,43.6623381,6328,N SPARKFORD WAY ,83713,85759d8b6f2b2270
-116.35986,43.6603047,6098,N BENNINGTON WAY ,83713,9143c6d68935da44
-116.3592449,43.6565501,5698,N MCCARTHY AVE ,83713,8b67a3eb8aabb209
-116.3591429,43.64543,4461,N ATTLEBORO PL ,83713,a26c28372e6ecfc8
-116.3591229,43.6477396,4725,N CHELMSFORD AVE ,83713,571c7ef481aeb3c2
-116.3591004,43.6533431,5357,N EBBETTS AVE ,83713,a8c56ebf629a2ba7
-116.3588655,43.6585427,5917,N COSWORTH PL ,83713,601b36781b25dac1
-116.3584886,43.6594795,14126,W GUINNESS CT ,83713,9ff52d74c3805b15
-116.3584516,43.6623051,6324,N BUCKLEY PL ,83713,4c833b21552a6a46
-116.3582321,43.6456674,14104,W HARTFORD DR ,83713,303834b04f9d7be2
-116.3581779,43.6530934,5311,N JOE ROBBIE AVE,83713,ada4dd6c12e840ed
-116.3579606,43.6606886,14066,W BATTENBERG CT ,83713,04737135b9b5a0f8
-116.3578766,43.657108,14070,W CHADFORD DR ,83713,f1ea019927c71eae
-116.3578722,43.6472498,4688,N SYRACUSE PL ,83713,5a110930a7ee8b61
-116.3577537,43.6575066,5804,N GRAHAM AVE ,83713,59ccc6584c47a66d
-116.3577388,43.6615544,14055,W STOCKWELL DR ,83713,fcfb1ae7f08aeb9e
-116.3573591,43.6623347,6326,N TALCREST PL ,83713,91c53e94831b886d
-116.3572643,43.6593721,14038,W HALIFAX CT ,83713,900e84b9572da7da
-116.3572197,43.647424,4699,N CHAPALA WAY ,83713,54546a3eca13ec29
-116.3572165,43.6538099,5375,N FORBES AVE ,83713,e2284c9e741bb085
-116.3568469,43.661064,6190,N TAPESTRY WAY ,83713,834ff4dc56e4647b
-116.3568021,43.6437107,13990,W MILFORD DR ,83713,d8802c7702268d82
-116.3563659,43.6531097,13995,W COMISKY CT ,83713,d2d107bb38bbc825
-116.3560591,43.6562766,13924,W ELMSPRINGS CT ,83713,036f554bcbe539d9
-116.3560059,43.6459108,13928,W ROCHESTER DR ,83713,6b97dd73bd302c6c
-116.3559103,43.6396323,13984,W JASMINE LN ,83713,5c3c2b4b7d64b3a6
-116.355907,43.6608775,13924,W DAIMLER CT ,83713,97c0a9c15275f5d0
-116.3557874,43.6584282,13912,W CORTINA CT ,83713,ec1d6194dc45a351
-116.3557683,43.6419986,13960,W WAINWRIGHT DR ,83713,8ede76ea5339e7d3
-116.3553965,43.6472953,13878,W DOMINION CT ,83713,b2671fb3cb540320
-116.3553155,43.6584108,5898,N PARCHMENT AVE ,83713,f1481f29d64b11dc
-116.3551774,43.6480446,13868,W BUNKERHILL CT ,83713,dd41f756c2d2e3fb
-116.355161,43.6615084,13864,W CHATSWORTH CT ,83713,99090f0101c115b5
-116.3550736,43.6456073,4494,N NEWBURGH AVE ,83713,34357a241e8e9ecb
-116.3549407,43.6537231,5376,N CANDLESTICK AVE ,83713,c8cf9cd52cc8049c
-116.3538647,43.6534137,5360,N EAGLE RD ,83713,a2bbed0347d5805d
-116.3536437,43.6458271,4515,N BAMBOO AVE ,83713,0b3d4ec61627c312
-116.3528125,43.6538812,5399,N STEAMBOAT WAY ,83713,3866e283b45c74b8
-116.3527844,43.6460672,4551,N FAN PALM AVE,83713,a90a899416f94315
-116.3525741,43.6584721,5900,N APPLEBROOK WAY ,83713,7227ed6d2bd5eb66
-116.352455,43.6452376,13648,W FIG ST ,83713,7bf1624abbbff8ae
-116.3523453,43.6534149,13641,W WRIGLEY CT ,83713,4cddc273e76c137f
-116.3518155,43.6425184,4151,N DAUPHIN WAY ,83713,1af110c9e34b7345
-116.3517622,43.6442277,4350,N LUSITANO AVE ,83713,bdf6b439b21055e1
-116.3517359,43.6445243,13578,W MEADOWDALE DR ,83713,78efe9f38f72ceb7
-116.3513999,43.6589649,13549,W EDENBROOK DR ,83713,9a0baf22eb4b9958
-116.3512119,43.6466176,13580,W ACORN ST ,83713,ed7885c588af92fb
-116.3507446,43.659233,5978,N BROOKLET AVE ,83713,79f67e1336b2c062
-116.3507441,43.645783,4521,N DRAFT AVE ,83713,5f7528f56e7f214e
-116.3506173,43.6473127,13530,W HAZELNUT ST ,83713,ba954f1754fcc9a4
-116.3502985,43.6587301,5915,N LILYBROOK PL ,83713,3318334fdf354e86
-116.350266,43.6624055,6341,N BELLECREEK AVE ,83713,d8c4fd7c69237687
-116.3500947,43.6563937,13495,W ELMSPRING DR ,83713,e999188324fea1b2
-116.3500732,43.6426536,13464,W WALDEMAR ST ,83713,3fb0f60de787a80b
-116.3497785,43.6444477,4378,N WELLSPRING AVE ,83713,edb969e55f918e08
-116.3495483,43.6517793,13414,W TAPATIO DR ,83713,68b82d212bb0bd68
-116.3492611,43.6616568,13410,W BELLFLOWER DR ,83713,924513cbd8f570a3
-116.3492591,43.6502378,13386,W REDWICK DR ,83713,62155b9625d38449
-116.3492039,43.6624491,13408,W BLUEBELL DR ,83713,33af00a2dadbc59b
-116.3491452,43.6350333,3337,N BOTTLE BRUSH AVE,83713,3ea1ee8d54907d80
-116.3491113,43.6442355,4355,N BORREGO WAY ,83713,a2ccd5f1dee0e17c
-116.349037,43.6535783,5355,N TROON PL ,83713,46e101c03a8611ae
-116.3489728,43.6571584,13386,W WOODSPRING CT ,83713,af68fe8e7a67161a
-116.3488227,43.6425527,13347,W WITTENBURG ST ,83713,c9cf965a58d82674
-116.3487672,43.6406973,3951,N BILBERRY AVE ,83713,73c74774f0571cd3
-116.3481605,43.6383525,3699,N ROCKCRESS CT ,83713,64a5e523899a0b8c
-116.3480815,43.6479647,4756,N DATE PALM AVE,83713,0c26be04b1a95aec
-116.3480584,43.6580115,13320,W HOBBLE CREEK CT,83713,8162a6fbdae39908
-116.3479081,43.642196,4117,N FOXBORO AVE ,83713,08781794d5b045c3
-116.3478985,43.6587472,13298,W ANNABROOK DR ,83713,84e4a100b09f213a
-116.347774,43.6358097,13271,W FOXFIRE CT ,83713,1e5d036556cf092c
-116.3477097,43.6400858,13264,W FOLIAGE CT ,83713,d4b1014eec8aa9f9
-116.3476982,43.6437858,13256,W PASSAGE CT ,83713,621b52e071003b7d
-116.3476948,43.6352473,13248,W BROADLEAF CT ,83713,4381d03b6abf078e
-116.3476762,43.6345183,13254,W FERNLEAF ST ,83713,39846d7db6c3a5a8
-116.3474953,43.6416069,13254,W PICADILLY ST ,83713,99feed2240c49cef
-116.3474634,43.6407658,13244,W HEATHERBROOK DR ,83713,488def4863f79808
-116.3473193,43.6480498,13238,W PERSIMMON LN ,83713,dd0abdbeba2091a3
-116.3472997,43.6551261,5530,N PAPAGO AVE ,83713,fcec12c6de30e791
-116.3472809,43.6454875,4350,N COLONIAL PARK WAY,83713,ffc748969c5e3de2
-116.3472215,43.6394173,13232,W SATINLEAF DR ,83713,fefa19155ec92cfc
-116.3470629,43.6554388,13220,W TELEMARK CT ,83713,12b8013abc00c555
-116.3469215,43.6384,3712,N ARBORCREST CT ,83713,35971527e82db2b4
-116.3468667,43.6369585,3536,N DUANE WAY ,83713,c4909edfa8e9517d
-116.3468259,43.6611632,13220,W DAHLIA DR ,83713,be3a0b7e9828f20b
-116.3467242,43.6584382,5898,N DALSPRING AVE ,83713,fa9ea475b73686fc
-116.3466739,43.6388467,13180,W FRINGETREE ST ,83713,23dd96efa6d77f02
-116.3464365,43.6428726,13167,W PAINT DR ,83713,08e0875ef60fde68
-116.3464149,43.6604868,13186,W BUTTERCUP CT ,83713,cc56be811169d42e
-116.3463728,43.659666,13172,W BLUEBONNET CT ,83713,037acabcfe48c616
-116.3462413,43.6520702,13149,W PALA MESA DR,83713,b8337d5261c8fd8f
-116.3462386,43.6512878,5121,N LAWSONIA PL ,83713,cfa831c3e76eba15
-116.3460926,43.6367158,3515,N TWEEDBROOK PL ,83713,4e0d1a71a00a43ae
-116.3460047,43.6568079,5731,N ROSEBROOK AVE ,83713,fbe732e73b1bb078
-116.3459862,43.644276,4349,N WATERLOO AVE ,83713,34403e1e7a123bcb
-116.3450584,43.636378,13053,W PEACHLEAF CT ,83713,dee693c6a95c99a3
-116.3448183,43.6422846,4138,N CHATTERTON AVE ,83713,329b6d80472d1990
-116.3447915,43.6495214,4934,N MAIDSTONE PL ,83713,8976b38ffcb40d7e
-116.3441218,43.637761,3643,N BETULA AVE ,83713,2a6637f2bc7d9915
-116.3440106,43.6366461,12974,W PINYON CT ,83713,1e504aa1cd6422a1
-116.3439914,43.6501957,4997,N MORNINGGALE DR ,83713,eaf5d448bad60445
-116.3436678,43.637817,12945,W FIDDLELEAF DR ,83713,51d760ef07c05874
-116.3436389,43.6373679,12944,W BALDCYPRESS DR ,83713,899073f7d0b32198
-116.3436185,43.6522913,5228,N BROOKFIELD PL ,83713,ba540c6c726ca071
-116.3429708,43.644919,12868,W GOLDENROD AVE ,83713,d6ca6dcaabcd8c8d
-116.3429199,43.6414775,12879,W SCOTFIELD CT ,83713,df2b0985f3887c8e
-116.3429017,43.6437474,4274,N GRENADIER AVE ,83713,567b186eedcae1e6
-116.3428769,43.653851,12854,W VENTANA CT ,83713,a141a3793def591f
-116.3424578,43.6353164,3347,N ANTHEM AVE ,83713,e6b38fcc2101f5ac
-116.3424491,43.6570749,5750,N PLUMCREEK AVE ,83713,1dfe3cfdd9dc06cb
-116.342098,43.6509506,12852,W SILVERBROOK CT ,83713,bf1a6cf126ae679f
-116.3417373,43.6491963,12774,W GOLDENBROOK CT ,83713,5d23c7c9de15ced4
-116.3416039,43.6481761,4775,N EDELWEISS AVE ,83713,a916ab97cfc6c7ae
-116.3415043,43.6469599,12732,W MERCEDES CT ,83713,b04e5860283c8596
-116.3414847,43.646243,12730,W AUDI CT ,83713,d1ff5bd81eb91732
-116.3414662,43.6561468,12781,W ASHCREEK ST ,83713,7bbbf936a955d089
-116.3413166,43.6499111,12734,W ROSEGLEN CT ,83713,f7b9b009bc8ee9c8
-116.3412634,43.655496,5593,N DISCOVERY PL ,83713,5e62efd665f8826e
-116.3412495,43.6622804,12754,W LASALLE ST ,83713,7cf2e5e48cda732a
-116.341069,43.6536875,5372,N BROOK MIST PL,83713,00de660c40443118
-116.3408559,43.6418752,12712,W EDNA CT ,83713,53e016f1c069fcd3
-116.3407552,43.6507762,5050,N BROOKMEADOW WAY ,83713,179875a3855f1b48
-116.3401454,43.6584269,12601,W BRIDGER ST ,83713,b8ff15ca9add7e0c
-116.3400794,43.6342409,3201,N CAMPTON WAY ,83713,b46556b5938c1bcc
-116.3400673,43.6406115,3959,N MULDOON PL ,83713,110437bbf6622077
-116.3400476,43.6482021,4773,N LANCER AVE ,83713,e8dfd9e622655e4b
-116.3399869,43.6524601,12650,W RUNNING BROOK CT,83713,5dadfc1fadddfe28
-116.3391298,43.6217531,1825,N HIGHWOOD AVE ,83713,492673e078bc20ca
-116.3390282,43.6543761,5467,N NOBLE FIR AVE,83713,2e5c10d6d7b3ecf6
-116.338586,43.6381185,12535,W FREEDOM DR ,83713,87893ad34c889aaf
-116.3385381,43.6544974,12538,W ENGELMANN DR ,83713,f85b417017f446b9
-116.3383643,43.6109523,671,N DUPONT AVE ,83713,0cc8d231265dfea4
-116.3381158,43.653239,5309,N BLACK SPRUCE PL,83713,d76bc0b3c32b6f22
-116.3379493,43.6347036,12482,W GUMWOOD DR ,83713,b8b984fc703f92bf
-116.3379262,43.6404622,3943,N FARADAY PL ,83713,7fa29f2d2188ce58
-116.3378632,43.6224773,1924,N TYRA AVE ,83713,84365a880162a408
-116.3377537,43.6376213,12471,W RAMBLIN ROSE DR,83713,bbe3b17431e0c0dc
-116.3377528,43.6474834,12410,W LEXUS CT ,83713,cb09b6ac2c1fb857
-116.3377242,43.6115009,12450,W EXECUTIVE DR ,83713,c4dfc7805a43505a
-116.3372428,43.62971,2547,N BANSTEAD AVE ,83713,303e91422057acc4
-116.3371956,43.6462174,4540,N PORSCHE WAY ,83713,7baa77a611f309a2
-116.3366518,43.6544594,12383,W SITKA DR ,83713,6c950c9c2f5acde9
-116.3364791,43.6481802,12350,W AVANTI DR ,83713,cf6d0b9d69a85640
-116.3364445,43.6394321,3831,N FARLIGHT PL ,83713,e7346be8e229dd4e
-116.336383,43.6577123,5800,N MEEKER AVE ,83713,ec128ed09451b911
-116.3363723,43.6465217,4566,N JAGUAR AVE ,83713,5e16729236b30fd1
-116.3362149,43.6223656,1933,N HEATH AVE ,83713,ee2079d567e8d6ce
-116.3360386,43.6094553,12336,W MONSANTO ST ,83713,d9540c112be71a96
-116.3359939,43.6343699,12337,W CLOVERWOOD CT ,83713,69cbdc7b29c54a73
-116.335671,43.6555041,5590,N KOASTER AVE ,83713,2268384f7933ae50
-116.3355688,43.6599043,12302,W EXPLORER DR ,83713,7b02f5c2aff0ffb8
-116.3348548,43.646727,4610,N ACURA AVE ,83713,8da289d119b37133
-116.3348017,43.6311123,12216,W BRIARWOOD DR ,83713,f5a7a8eb42665158
-116.3347091,43.6535124,12228,W NORWAY ST ,83713,abc4dceb4721f738
-116.3340004,43.6551417,5513,N CRESWELL AVE ,83713,4bd0aaeaa7da70a2
-116.3338675,43.6252974,2251,N HIGHWATER PL ,83713,d369834d8a08651e
-116.3338498,43.6395333,12192,W HINSDALE CT ,83713,6eb82637a4b9efab
-116.3337359,43.6250471,12148,W CLOVER MEADOWS DR,83713,2a9107a862885fcc
-116.333648,43.6128686,878,N MORIAH PL ,83713,f7305b7687ccf992
-116.333523,43.6352892,12133,W GUNSMOKE DR ,83713,2fce4369ab0419c9
-116.3333371,43.6508808,12127,W PATRINA DR ,83713,f41debc3d61d2353
-116.3330768,43.6471811,4619,N MARYLEBONE PL ,83713,a2981820d159133c
-116.3330204,43.6573339,12075,W SAVAGE DR ,83713,a5be69ffd8d84d33
-116.3324136,43.6347988,3300,N LAKEGROVE LN ,83713,f2ce7c878f17539b
-116.3323762,43.6402119,12028,W ALLIANCE CT ,83713,5c016111fc350f93
-116.3322781,43.644336,12041,W COMBES PARK DR,83713,54eed40a857356d8
-116.3321772,43.6130429,898,N DAMASK PL ,83713,ebad85ce7b5f8d50
-116.33169,43.6528699,11937,W JODY DR ,83713,ec21c47c41621ea8
-116.3314367,43.612941,11956,W DRIFTWOOD CT ,83713,fdb44f15ce7aee34
-116.3313294,43.6238882,2093,N FASTWATER AVE ,83713,f66b2e68b6ea2abd
-116.3312968,43.6326624,3076,N GRETCHEN WAY ,83713,e246cb0c7a4eb67f
-116.3312816,43.6472219,4659,N ZIMRI PL ,83713,7a783d0ef10cd6f6
-116.3310511,43.6146007,11911,W SUNNYDALE LN ,83713,8c5662e81e9e7467
-116.3309719,43.6210051,11928,W CLOVERBROOK LN ,83713,e6d31474660e4603
-116.3309448,43.640343,3899,N BROOKINGS PL ,83713,08bab66a03f1bc12
-116.3307865,43.6204552,11910,W CLOVERFIELD LN ,83713,80e05bd402a33968
-116.3306915,43.6525566,11890,W FIDDLER DR ,83713,01a854dcda8e4e0b
-116.3305994,43.6298168,2730,N BLUEWATER AVE ,83713,1c5b560b8ddbabd7
-116.3302263,43.6319865,2980,N NYSTROM PL ,83713,179e37b2cdf8fd8f
-116.3301406,43.6227597,1961,N COOLWATER AVE ,83713,2ac32609a5431e31
-116.3300971,43.6221667,11840,W STILLWATER DR ,83713,d05cd037bda95aa8
-116.3300863,43.6243986,2137,N FREEWATER AVE ,83713,4c12e52175551ee1
-116.3298743,43.6349703,3313,N TYLERSON AVE ,83713,187c16c7296ad11a
-116.3297978,43.6329844,11828,W ARCH ST ,83713,9f661b6beee47d5f
-116.3297698,43.6539085,5395,N SKIPPER AVE ,83713,98fab537163e96ca
-116.3295688,43.6140843,1013,N DAWN DR ,83713,b040ce00c7834fac
-116.3291585,43.6336556,3158,N TATTENHAM AVE ,83713,213d1986e66e889a
-116.3287482,43.6544499,11748,W JENILYN CT ,83713,9bb77803fbd71990
-116.3287356,43.6181153,11762,W GABRIELLE CT ,83713,5b1ce1cf65ab5699
-116.3286855,43.6519636,5182,N LENA AVE ,83713,d00b14731e0d0643
-116.3282029,43.6532388,11730,W VIOLET CT ,83713,ff1f8a2cddf52935
-116.3281085,43.6304912,2830,N CRIBBENS AVE ,83713,d41c4f6d7a1ceb2d
-116.3279168,43.6172839,11692,W AZURE DR ,83713,cb8c45277bd43b40
-116.3278517,43.6539387,11678,W HAZELDALE CT ,83713,c49c3fb7e3b31c2d
-116.3275953,43.6263722,11640,W BOWMONT AVE ,83713,bf310d4ab3047a35
-116.3275124,43.6371894,11638,W RAMROD DR ,83713,3b76af1f9e438e82
-116.327492,43.6227425,1912,N DELMAR ST ,83713,96b4e7c540e8cef4
-116.3274314,43.6336765,3179,N COLUMBINE AVE ,83713,839f56d54dcd1915
-116.327356,43.6306082,11645,W VIOLA CT ,83713,e9eba1301c1706ab
-116.3272662,43.6321539,11624,W RACE CT ,83713,7a2a80d3a79ae5d5
-116.3271946,43.6385865,11610,W POWDERHORN CT ,83713,c14ae8f93f1875c7
-116.3271907,43.6392608,11630,W MUSKET CT ,83713,3236af1785bb3c35
-116.3271408,43.6145067,1068,N SPIREA AVE ,83713,410609b9589ef23f
-116.3271216,43.656408,11612,W ALFRED CT ,83713,a03541b05d43d79e
-116.3270385,43.6175712,1393,N NICHOLE AVE ,83713,3191be85e98a7910
-116.3268195,43.6365833,3485,N TUMBLEWEED AVE ,83713,e7b05532f0117a6c
-116.3260873,43.6501064,4985,N PAYNTON WAY ,83713,b27b17d9cfb445ee
-116.3260628,43.633625,3177,N BRYSON AVE ,83713,c6850cdbd689d118
-116.3259548,43.6240488,11502,W ROXBURY CT ,83713,8255085669c946ca
-116.3257812,43.6523308,11507,W ARLEN CT ,83713,9df0c49459076a35
-116.3257798,43.6153258,11508,W SILVERVIEW ST ,83713,6dc1a4ac6e856f9d
-116.3255143,43.6223475,11448,W OLYMPUS CT ,83713,2ff315aa4029fb63
-116.3255115,43.6145166,11488,W SILVERCITY CT ,83713,968339ed67aa0fd8
-116.3251546,43.6509084,11402,W RADER CT ,83713,3c7f8256ebcfbb3a
-116.3246541,43.6279268,2534,N PENNY ROYAL AVE,83713,bdca2814d5da62c9
-116.3244527,43.650099,11342,W DALLAN CT ,83713,360b20e03fb23d7f
-116.3244423,43.632079,3007,N SHAMROCK AVE ,83713,3858161f65dedf35
-116.3239201,43.6171783,1351,N TIMATHY LN ,83713,2e4857440c21e905
-116.3238319,43.6235778,2061,N SILVERSAGE AVE ,83713,acf4e35ec15ab51f
-116.3237907,43.6495014,11302,W DANIEL CT ,83713,1bd0012643929cfe
-116.3237028,43.6364011,11366,W FLINTLOCK DR ,83713,1dfa5217d9b1ef6f
-116.3236122,43.6389945,3759,N CHUCKWAGON AVE ,83713,e6564bfbd9124959
-116.3233389,43.6322847,3009,N MUMBARTO AVE ,83713,676d9e06847d87ca
-116.3230005,43.6109752,11255,W PRESIDENT DR ,83713,111fe13bc2b8a224
-116.3227277,43.6152688,620,N EMPRESS ST ,83713,014b14ba1d00496c
-116.3226545,43.6409716,3951,N PENNFIELD AVE ,83713,7c09dcb15caa1691
-116.3225903,43.6218711,11265,W KNIGHTSBRIDGE CT ,83713,2d56b3682fa0f2d2
-116.3224726,43.6345117,11298,W STALLION LN ,83713,671b07047ddc54bf
-116.3224356,43.6186534,1526,N STEELWOOD AVE ,83713,b09c97614811f347
-116.3221066,43.6349537,3295,N WILDWOOD LN ,83713,16e90a446a333088
-116.3217539,43.6146678,520,N MEADOWLAND CIR ,83713,8ecd0d9571f22b26
-116.3216936,43.6255419,2278,N SPRINGLAND AVE ,83713,7e6336b18edc9fec
-116.3216637,43.6482982,4789,N MIRTH PL ,83713,75fa2c64c5518a1f
-116.3208816,43.6248295,11132,W BLUECANYON CT ,83713,153f38831de8e921
-116.3208586,43.6377601,11140,W CARTRIDGE ST ,83713,bf726621100962e7
-116.320759,43.6273357,11108,W TAHITI CT ,83713,48853ca0f8c15ddb
-116.3205722,43.630252,2800,N FAYETTE PL ,83713,c208f313e4219737
-116.3204567,43.634744,11071,W WAMPUM DR ,83713,71fbec0d5a1f9db1
-116.3200745,43.6409645,3971,N OXBOW AVE ,83713,e0c6256d8fc4c834
-116.3200387,43.6234766,11064,W BUMBLEBEE DR ,83713,ffe3213fc8401b96
-116.3199242,43.6159253,1206,N LILLY AVE ,83713,620bb74424e12d5a
-116.3199229,43.6250734,11037,W MARLINWOOD DR ,83713,2117a7092c683182
-116.3195272,43.6443064,4348,N WISTERIA LN ,83713,50070f2a977a7e0d
-116.3193375,43.6263704,2381,N BALI AVE ,83713,c1ff1ab7942a0dd5
-116.3190365,43.6525993,5242,N FARROW ST ,83713,274958a51c0b1477
-116.3189501,43.6463083,4571,N ELGIN WAY ,83713,b0bb4923f683db41
-116.3184899,43.6182853,1436,N CORMORANT PL ,83713,85b4dd594bb2da29
-116.3180093,43.6420116,4077,N FIFESHIRE AVE ,83713,05cc88f114b09677
-116.3175126,43.6142491,376,N BONANZA ST ,83713,ee219c345233ebf4
-116.3172562,43.6385448,3683,N COVERED WAGON WAY,83713,b10d453c96019576
-116.3171563,43.6257324,2306,N CITRUS AVE ,83713,6aad8ea024c87932
-116.3164932,43.6382538,3687,N FRONTIER WAY ,83713,e72de9c7fca097f9
-116.3164226,43.648274,4781,N BUCKBOARD AVE ,83713,c77cab53660d85bb
-116.3163836,43.6092714,507,N PARTRIDGE PL ,83713,d684a84a0669883c
-116.3160167,43.618785,1535,N TRAVIS PL ,83713,775e6c62a7d14495
-116.3157595,43.6514147,5120,N LEATHER PL ,83713,c27f10a4124db43d
-116.3157405,43.613454,261,N CHECOLA CIR ,83713,17f97371636c3446
-116.3154508,43.6265599,10702,W SOUTHWIND ST ,83713,85c76914d8639398
-116.3153848,43.6242366,2107,N FARWELL AVE ,83713,3f6a4f8899ff3fd5
-116.3152244,43.6461699,10676,W ALBANY CT ,83713,98d8a2f1853d7a34
-116.3151885,43.6443666,10696,W RICHEY CT ,83713,52196c1304653614
-116.3149395,43.6247172,2173,N CHARITAN DR ,83713,b8ab2369d4e611bb
-116.3149162,43.6143796,155,N RAINBOW DR ,83713,a80987eead303514
-116.3138759,43.6595456,6000,N WILLOW CLIFF WAY,83713,8a791b89cc9521a3
-116.3917795,43.6370334,3561,N ETTA WAY ,83646,53db40c9f91ed580
-116.3917026,43.6220019,145,E SPINOSA DR ,83646,22f5b060ab30c673
-116.3916867,43.6346996,168,E SANTIAGO CT ,83646,b7953db7938dd4fe
-116.391666,43.6295592,2717,N ALDGATE WAY ,83646,43ed0f649618aa24
-116.3916556,43.6307114,136,E BALDWIN ST ,83646,cf0e5dcc7f378222
-116.3916345,43.6411515,4011,N DONAVAN WAY ,83646,4493305fb5638d8d
-116.3912926,43.6231401,2013,N WOODFORD AVE ,83646,e4420a14dea4ed29
-116.3911726,43.6230991,237,E ELBRIDGE ST ,83646,1e31eedabb9b515c
-116.3910432,43.632779,3105,N FAUTH LN ,83646,4ff34734ab304e6e
-116.3909693,43.6350684,3340,N MACON PL ,83646,39273d81ab206acb
-116.3907127,43.6219362,1865,N IBERIS AVE ,83646,1cff865f75dc36d8
-116.3906726,43.6391407,3789,N TUPIZA AVE ,83646,8653a324a9315983
-116.3906454,43.6276914,2536,N TUSCAN AVE ,83646,f47c9ec5ac1871af
-116.3903183,43.6349404,277,E PATAGONIA DR ,83646,75495359a82b0d67
-116.3898455,43.6266865,2442,N LARCHMONT PL ,83646,5fad338d87587176
-116.3897907,43.6231778,2010,N GLADEWATER AVE ,83646,9d4366076c10ea22
-116.3897156,43.6543095,5431,N CLARET CUP WAY,83646,9e556d1e0d7924c9
-116.3896275,43.6392453,3809,N LONGABAUGH AVE ,83646,efaeb3f57dcf43c4
-116.3895762,43.6361844,3471,N PESCADO WAY ,83646,b18a4f794e743c31
-116.3895715,43.6524753,5249,N ISLA AVE ,83646,0a25515d606086b3
-116.3893237,43.6333934,398,E EDGAR CT ,83646,fd575a2cbc0fce1c
-116.3893107,43.6232579,2021,N EUREKA AVE ,83646,30ae6ce2a0d13e0a
-116.3892816,43.6304833,2811,N ANSTON AVE ,83646,ab017b18d1493fde
-116.3891322,43.6302893,403,E WAKELY ST ,83646,dcb7188e29f2e632
-116.3891147,43.6211469,1798,N BUENA VISTA AVE,83646,02466cd632f19065
-116.3886177,43.6590803,418,E PASACANA ST ,83646,e6bcdda70162a0b1
-116.3882572,43.6550062,429,E ALMOS ST ,83646,366639071c8737d9
-116.3881787,43.656156,5665,N PINERY CANYON AVE,83646,4294e97bb4e11bad
-116.3879131,43.6232054,2078,N ARROWWOOD AVE ,83646,c9c33dc6db62ecfd
-116.3878869,43.6514368,5103,N ZAMORA WAY ,83646,b39e253b9088b4b1
-116.387851,43.6344796,3288,N WESTON AVE ,83646,ce91be2656af6ab1
-116.3876425,43.6397611,3835,N KILBERRY AVE ,83646,5dec82743355e14f
-116.3870284,43.6341907,3245,N CHOCAYA PL ,83646,807f89e502ba45a8
-116.386767,43.6519917,559,E OCELOT CT ,83646,d81f359bfde57f71
-116.3864146,43.6554636,624,E GIANT SAGUARO ST,83646,8ce72a7048bb35e0
-116.3861694,43.6501298,608,E BONITA CANYON ST,83646,184bc57de3e6bfca
-116.3857181,43.6771335,7905,N VUE ESTATES RD,83646,93a93cb52168338a
-116.3853883,43.6240533,2163,N CAPECOD WAY ,83646,cdf646384077783d
-116.3853763,43.6272106,645,E GROUSE CT ,83646,70476b52781a4d27
-116.3853738,43.6344953,3280,N CURT DR ,83646,0533ae8b45e8956c
-116.3852457,43.638477,3712,N TIPTON PL ,83646,e7e9976b7d1fd2f3
-116.3850582,43.6403954,3926,N LARKIN PL ,83646,6f76bbe57d79b06b
-116.384821,43.6236066,2076,N VIEWHILL AVE ,83646,eb2614542760b0f0
-116.3842991,43.6235272,2041,N LARK PL ,83646,fdcc1cb85309bb15
-116.3842988,43.6593979,789,E TALLINN ST ,83646,a469cf93a519d06a
-116.3842913,43.6292493,2695,N WOLVERINE AVE ,83646,bbd36382b4ff5ff8
-116.384186,43.630369,775,E FINCH CREEK ST,83646,32201adfb0a33031
-116.3840871,43.6532848,802,E HANDEL ST ,83646,7b4e1c270b0ce975
-116.3837737,43.6540162,5411,N ROSA SPRINGS AVE,83646,445fb6036d022803
-116.3837315,43.6334766,850,E RINGNECK ST ,83646,fd4528b748ce34b1
-116.3837173,43.6601527,818,E MARTELLO LN ,83646,b40a2e00a408b616
-116.3834868,43.6429003,848,E TUWEEP ST ,83646,f2801542d1cd0678
-116.3830916,43.6315244,2948,N STARLING WAY ,83646,8ea8a69b0308a49f
-116.3825567,43.642088,956,E SWITCHBACK DR ,83646,c7c028c73b81180f
-116.3825522,43.6413036,958,E VESTIGE DR ,83646,de841ef117401597
-116.3824919,43.6315908,937,E STORMY DR ,83646,e0876590d64ceac0
-116.3821307,43.6281229,2582,N CARIBOU WAY ,83646,562292bda616536f
-116.3821004,43.6246828,904,E CLAYBOURNE DR ,83646,bf192f8ca1e31ec3
-116.3818778,43.6228037,930,E CLARENE ST ,83646,63299c9c241bceeb
-116.3817361,43.6311863,2912,N TIMBERFALLS PL ,83646,6ff21d84f22bd3d2
-116.3817203,43.623547,2045,N BRIXTON PL ,83646,0d30b648ac9818e6
-116.3817179,43.6557667,5605,N MORPHEUS PL ,83646,9501e85198231a84
-116.3816051,43.632383,1034,E SHARPTAIL ST ,83646,247ea9bf37a8278d
-116.3815384,43.6267299,1035,E HUNTER DR ,83646,064fbcb17e7f778c
-116.381319,43.6604517,1021,E KLAMATH LN ,83646,796f2cd575410658
-116.3812042,43.6214981,954,E TAMMY ST ,83646,67ba95ee949f5c98
-116.381103,43.6580166,1034,E AZAN ST ,83646,05349c1357b4fcfd
-116.3810539,43.65729,1048,E TUTTLE ST ,83646,7f3663d00fffbf91
-116.380977,43.6427332,4176,N TEMPEST WAY ,83646,c8df65eefd5d82ef
-116.3807626,43.6449836,4429,N MOONEY FALLS WAY,83646,eafcac84129879a7
-116.3806955,43.641824,1020,E REDWALL CT ,83646,1d2f7020a3bac9da
-116.3806215,43.6376386,3624,N HOLLYMOUNT WAY ,83646,029ddac174dd02a2
-116.3805733,43.6283317,1125,E MEADOWGRASS ST ,83646,addcf860db7e93e5
-116.380476,43.6361307,3404,N PRIVATE LN ,83646,76ef549ed134a305
-116.3803087,43.6489932,4864,N LARKWOOD PL ,83646,38e86ff5a72202d9
-116.3802088,43.6375339,3601,N COLBOURNE WAY ,83646,6d24ff9239153ad1
-116.3801182,43.6198308,1621,N JERICHO RD ,83646,3010ba7ae0e1030c
-116.3796739,43.6579175,5848,N MAXIMUS WAY ,83646,f032f821242114fa
-116.3796738,43.6304324,2825,N WREN AVE ,83646,2d12b1fa445af91a
-116.3796721,43.6273766,2453,N BOBCAT WAY ,83646,72e4d36989fcfc00
-116.3794781,43.6286806,2609,N GOLDENEYE WAY ,83646,111fb4c2d80d836a
-116.3793343,43.6340825,3221,N LILYTURF AVE ,83646,4948f5a949dc16c9
-116.3793321,43.6349602,1177,E SUMMERFALLS ST ,83646,1db9a3f4fe024e58
-116.3793207,43.6372081,1160,E PRAIRIEFIRE ST ,83646,5be3196d17d761df
-116.3792443,43.6586445,1241,E COMMANDER ST ,83646,c655e7d1c04ba644
-116.3792068,43.6244002,1122,E TORRINGTON CT ,83646,ae4cef38bdcd624b
-116.3791809,43.6566612,5703,N DEHAAS AVE ,83646,253cdd83afa16a5f
-116.3791473,43.6357094,1185,E SUMMERHEIGHTS DR ,83646,1e087a20d896c284
-116.3787934,43.6343625,1229,E SUMMERPLACE ST ,83646,da39b794754f029d
-116.3785011,43.6430092,4207,N SUPAI AVE ,83646,51df9d3bafc332a2
-116.378195,43.6400082,1322,E LOYALTY ST ,83646,1213fff799a2792b
-116.3781742,43.6380059,3640,N QUENZER WAY ,83646,6022e5355eb0ee31
-116.3780053,43.6265025,1322,E TOURMALINE ST ,83646,5721c248dafd6a55
-116.3776111,43.6238165,2100,N ZIRCON PL ,83646,cc44f6e471898899
-116.377581,43.620933,1370,E CAROL ST ,83646,8ec34a7a21fbcf5a
-116.377175,43.6535083,1357,E STRAUSS DR ,83646,25f2a4cac6c2b2be
-116.3771671,43.6283313,2583,N SHOVELER WAY ,83646,3fa1c159dc30a7e3
-116.3771526,43.6272972,2449,N ARCHERY WAY ,83646,1aa0134bbbfc7c16
-116.3767461,43.6237966,2089,N SAPPHIRE PL ,83646,8e3cc13f4401e2d5
-116.3766174,43.6467814,1421,E TERRITORY DR ,83646,76f3c91f6fd795f4
-116.37643,43.6492013,4896,N STARRY NIGHT AVE,83646,3d2ce91f86e43fec
-116.3763549,43.6415764,1400,E LEIGH FIELD DR,83646,13c70366f8990698
-116.3758255,43.6253185,1495,E PERIDOT ST ,83646,03bff0a7cd813f99
-116.3755908,43.6238056,2095,N AMETHYST PL ,83646,4dd046f173e2fcbb
-116.3749842,43.6323234,3030,N SHEEPHORN AVE ,83646,afed056ffeaa0774
-116.3748957,43.6270545,2418,N VALMET AVE ,83646,cc30ce7e28258b97
-116.3742054,43.6267647,1629,E LOCHMEADOW CT ,83646,b030544ae387f315
-116.3741707,43.6286511,1617,E CHALLIS ST ,83646,2ade0eccf31413a3
-116.3741159,43.63819,1630,E SUMMERRIDGE DR ,83646,7108c391a42dcb79
-116.37411,43.6422711,1630,E PARADISE LN ,83646,7c59351be4b15cd1
-116.3740875,43.6365416,1635,E SUMMERCOVE CT ,83646,128b064e140642b6
-116.3740757,43.6452507,1621,E EXPEDITION DR ,83646,16d94d7fcc51b952
-116.374006,43.6523857,5235,N BACH PL ,83646,7ead44aeb648cd9b
-116.3738879,43.6537414,1645,E SABALIOUS ST ,83646,cd047a5c1d0efb37
-116.3737363,43.6453047,4431,N STAMPEDE WAY ,83646,2819e501b81f75b1
-116.3735863,43.6315328,1687,E KAMAY CT ,83646,b0b39f1471d5d517
-116.3735773,43.6289619,2634,N SUMMERBROOK AVE ,83646,69586d7876493556
-116.3732214,43.6294144,1707,E CHEMISE ST ,83646,1d8bd5e105638bd6
-116.3732005,43.6234292,1715,E OAKCREST DR ,83646,c4d8d1d77783a3fb
-116.3729504,43.6525917,5265,N BEETHOVEN AVE ,83646,56b5dee8c0bcf9d8
-116.3723714,43.6246873,2180,N LOCHNESS WAY ,83646,844bfe5a7052bed5
-116.3720723,43.6286334,2625,N CHIANTI WAY ,83646,1c2c641a95b20b30
-116.3719867,43.6525613,5267,N CHOPIN PL ,83646,85c1c22c9bdbc8da
-116.3719338,43.6360787,3460,N SUMMERSIDE WAY ,83646,f7120038079355af
-116.3718804,43.6272355,1815,E GLENLOCH ST ,83646,c5c4888b78173ec6
-116.3718634,43.6237574,2050,N SEQUOIA PL ,83646,1042bc7bfde51cbd
-116.3716438,43.6608205,1822,E TOWNLINE WAY ,83646,5b8b3bf37198054c
-116.3716347,43.6301472,1812,E CHIMERE DR ,83646,191d821a798d7bd3
-116.3715332,43.636059,1848,E SUMMERDAWN DR ,83646,5c87b317ee00786d
-116.3714455,43.635242,3319,N SUMMERFIELD WAY ,83646,1d081edd7cddf0c1
-116.3713175,43.6231843,2000,N APPLEWOOD AVE ,83646,e6517c58f75ebf91
-116.3707184,43.6456915,4503,N SCHUBERT PL ,83646,0eb22b183df16598
-116.3706637,43.6249626,2203,N MEADOWROSE PL ,83646,539113af76fa15d5
-116.3704916,43.6544759,1930,E MOZART ST ,83646,a5ae00deef18d1d9
-116.3704038,43.6235624,2043,N WHITTIER PL ,83646,41db606cbb3441af
-116.3700535,43.6530244,5341,N DEBUSSY WAY ,83646,4b7c1e11f11ca67a
-116.3700353,43.6472121,4647,N JOURNEY PL ,83646,c4e3f1619b49db4b
-116.3699017,43.6206245,1722,N AVEST LN ,83646,83dd4a0dca09a9a0
-116.3697043,43.6245701,2170,N LAUGHRIDGE AVE ,83646,9ca0c51253d50399
-116.3695585,43.644927,2009,E PATHFINDER ST ,83646,736a6e0512c1d468
-116.3693867,43.6426062,4165,N SPANGLE DR ,83646,cb1a457d249ce50d
-116.3692925,43.650291,5011,N KILT AVE ,83646,889f11156152bd5b
-116.3692387,43.6388035,2024,E LOBELIA ST ,83646,4e5fb877d793f546
-116.3691498,43.6216847,2093,E GRAPEWOOD DR ,83646,010c27826d1957c1
-116.3690658,43.66146,6235,N RANCHETTE LN ,83646,74e8dd2f54af00e1
-116.3690076,43.6453551,2032,E SIDEWINDER DR ,83646,39d169d66386b847
-116.3689769,43.6511979,2040,E GLASGOW ST ,83646,ac9b56f84187a9f8
-116.3688418,43.6564268,1970,E DUNWOODY CT ,83646,be6f94106df34b76
-116.3687162,43.639045,3725,N NEITH AVE ,83646,65eb44fef3a9e2e3
-116.3686971,43.6220904,1898,N DIXIE AVE ,83646,0ebabe7c17f1029a
-116.368446,43.6289027,2650,N CHANCERY WAY ,83646,a11e4da6ce1302ee
-116.3683032,43.6359668,3460,N SUMMERPARK AVE ,83646,0b1b4d8b152bf418
-116.3682934,43.6258066,2116,E KATELYN DR ,83646,08c08a47bc3ade1b
-116.3682854,43.627233,2454,N MEADOWGLEN PL ,83646,c6df8332b1ef3a57
-116.3682572,43.622271,2175,E APRICOT DR ,83646,2f946a18d6a4939c
-116.3682489,43.6233025,2029,N SIMERLY AVE ,83646,f8c9cb11432b0a71
-116.3681994,43.6607329,2120,E KAREN DR ,83646,44dc9704e210e71c
-116.3681819,43.6348181,3389,N SUMMERCREST WAY ,83646,97b6e3f8bedc676c
-116.3677146,43.6518795,5180,N SCHUMANN AVE ,83646,ca840c81b2f00b9f
-116.3676533,43.6215584,1836,N GINKGO AVE ,83646,499ab173a60f079a
-116.3674194,43.6285928,2636,N SANTEE PL ,83646,3e3c4bead5722c40
-116.3673962,43.6303814,2810,N LAWSON PL ,83646,f2b5b6a9f9257303
-116.3669249,43.6625851,6360,N SHANDEE DR ,83646,6de60859560ea2f1
-116.3668288,43.6343481,3239,N DIXON AVE ,83646,6c419e92a08fbf7f
-116.3667484,43.650494,5046,N BRIGADOON AVE ,83646,553489102c483b69
-116.3666509,43.6235964,2054,N REBA AVE ,83646,de00b7109dc1c98a
-116.3666382,43.6341791,2217,E SATTERFIELD ST ,83646,2163fd6ebda15265
-116.3666294,43.6362693,2237,E CONNER ST ,83646,bb18307e84a9834a
-116.3665959,43.6374326,2242,E BOWMAN ST ,83646,8ef450b0f46a2a70
-116.3665948,43.6376849,2227,E NAKANO DR ,83646,96071d80620e6936
-116.36632,43.6529239,5299,N DVORAK PL ,83646,3ee6dd5303987fba
-116.3663178,43.6504909,5041,N ABERDEEN PL ,83646,536788288d629794
-116.3658246,43.6395626,2301,E WIGLE DR ,83646,d6bd32d7bf05f28a
-116.3656861,43.623415,2030,N DEVLIN AVE ,83646,cb32f234d27255aa
-116.3655129,43.6390047,2354,E SWINDELL DR ,83646,5290a07cb1bf84ea
-116.3652313,43.6440634,4210,N PATRIOT CIR ,83646,6b378197172b0e7e
-116.3649057,43.6342735,3210,N CAFFERTY WAY ,83646,9067720d2969a09d
-116.3648451,43.6364792,3496,N HAWKINS AVE ,83646,88f38cc7a0d6250e
-116.3647441,43.6287992,2642,N LAPIS AVE ,83646,5dfdf802be9b200e
-116.3646643,43.6451838,4434,N MENDELSON AVE ,83646,b40fe894863fd69e
-116.3643378,43.6256058,2435,E NIKKI CT ,83646,86258b93513a0073
-116.3642704,43.6434605,2403,E HONEYWOOD CT ,83646,85c40b42b42dbf46
-116.3642583,43.6415295,4113,N LINWOOD WAY ,83646,4e2959a8e6b44d16
-116.364212,43.6369846,2410,E OMERA ST ,83646,3e40e8d4d467a2cb
-116.3642027,43.6321853,3020,N WINGATE LN ,83646,faf20c6d7fe102cd
-116.363982,43.6360731,3430,N TROXEL WAY ,83646,8c1900b5c5aeac6a
-116.36398,43.6401705,3899,N CONLEY AVE ,83646,eee08de5057c8d08
-116.3638648,43.639606,2461,E GARBER DR ,83646,1aac83cb2a72e914
-116.3638059,43.6341916,3251,N PANKRATZ WAY ,83646,5ada0adfa44c3a1e
-116.3635944,43.6456837,2574,E GRANADILLO DR ,83646,aaf0a6e9fef9b2aa
-116.3635223,43.6460613,2573,E LACEWOOD DR ,83646,82e7317377aef20f
-116.3630337,43.6472781,2515,E WHITEBUD CT ,83646,995d3df578106c7b
-116.3630099,43.6417756,4081,N ROGUE RIVER WAY,83646,d8cfd2c95bba1eda
-116.3627538,43.6376946,3627,N PETTY WAY ,83646,48ab8140babc8c21
-116.3627241,43.62548,2535,E BERNICE DR ,83646,9c363a4d88da2803
-116.3625449,43.6271734,2460,N BULLOCK AVE ,83646,b9f2afb3d7f5a2ae
-116.3620849,43.6235222,2603,E MOOG ST ,83646,ec4ca337eb033195
-116.3616628,43.6343923,3264,N GAVIOLA AVE ,83646,943e80d2cba5d031
-116.361236,43.623214,2040,N JOSIE WAY ,83646,e9f5576fac16e89b
-116.3610652,43.6290817,1155,N JUSTIN PL ,83646,a098e2ce699ac258
-116.3610251,43.6392921,2654,E MAHONEY ST ,83646,2a5de6dcc326a96e
-116.3598104,43.6219088,1864,N MARNITA AVE ,83646,0bf17fc8ad1ed827
-116.3596777,43.6412578,4001,N DASHWOOD PL ,83646,3e93b0477b3a6626
-116.3591564,43.6300361,2771,N CENTREPOINT WAY ,83646,824893ecfdce960e
-116.3589924,43.6298778,2863,E BOURBON ST ,83646,cdf52cdcddfbf3e9
-116.3582953,43.6412624,4019,N BROOKSBURG PL ,83646,9e4aa354f8845294
-116.3575904,43.6301182,2790,N LEBLANC WAY ,83646,4061637b26cd6aa0
-116.3570612,43.6301901,2796,N VILLERE LN ,83646,e158676a6cee7384
-116.3563295,43.6302875,2805,N CAJUN LN ,83646,a56d1b1c4f462158
-116.355753,43.6269435,2414,N STOKESBERRY PL ,83646,c1c2abe30d10664a
-116.3551686,43.628693,3165,E LESLIE DR ,83646,9ab3e280737e63e3
-116.3539968,43.6215987,3210,E LONGWING LN ,83646,f0d86d2a3b5016da
-116.3511394,43.632634,3471,E TECATE LN ,83646,60d258ea92a01d01
-116.3481558,43.6208609,1751,N RECORDS WAY ,83646,6d983827200f47b0
-116.3441973,43.6310996,4008,E CONKLIN DR ,83646,7d6dba66cffe8979
-116.3441114,43.6335056,4012,E CHANDLER ST ,83646,6d4da15dbcb6a2c6
-116.3440307,43.6214593,4043,E ELDEN GRAY ST,83646,d304d66c070b8027
-116.3436435,43.629709,4025,E SPEARFISH DR ,83646,9c8ee23bd5039e6b
-116.3429957,43.6271915,2451,N WALLINGFORD AVE ,83646,5f0497fce4e64ee0
-116.3400336,43.6237744,2028,N SHARON DR ,83646,09838bfcf9181837
-116.3399926,43.6223562,4375,E VENTURE CIR ,83646,eb1879ab8cbe695a
